ORBCOMM FM24            
1 25478U 98053D   24235.70655161  .00003594  00000+0  12688-2 0  9995
2 25478  45.0065 242.5300 0002012 258.3550 101.7071 14.36189111354506
ORBCOMM FM25            
1 25479U 98053E   24235.74368888  .00003314  00000+0  11736-2 0  9990
2 25479  45.0057 240.6046 0003908 226.0538 133.9988 14.36178857354809
ORBCOMM FM26            
1 25480U 98053F   24235.72355879  .00002490  00000+0  90533-3 0  9993
2 25480  45.0053 235.2865 0006445 232.1805 127.8459 14.35534307354833
ORBCOMM FM27            
1 25481U 98053G   24235.73271957  .00003246  00000+0  11511-2 0  9997
2 25481  45.0039 240.9165 0002569 297.3088  62.7498 14.36162208354774
ORBCOMM FM28            
1 25482U 98053H   24235.89751537  .00003485  00000+0  12225-2 0  9990
2 25482  45.0046 178.2689 0004334 266.3774  93.6578 14.36560197355432
ORBCOMM FM30            
1 25980U 99065A   24235.88451146  .00002752  00000+0  99290-3 0  9993
2 25980  45.0318  60.1576 0005448 308.7730  51.2630 14.35677636291558
ORBCOMM FM31            
1 25981U 99065B   24236.19846631  .00002701  00000+0  97574-3 0  9993
2 25981  45.0231  52.2967 0002512 334.1331  25.9391 14.35664869292128
ORBCOMM FM32            
1 25982U 99065C   24235.97416685  .00002672  00000+0  98472-3 0  9996
2 25982  45.0155  67.8991 0004837 340.8739  19.1926 14.34674166291871
